start=new Date('2022-06-11T00:00:00.000Z').valueOf();
sats=[{"MEAN_ELEMENT_THEORY":"SGP4","INCLINATION":"53.0440","EPHEMERIS_TYPE":"0","SEMIMAJOR_AXIS":"6696.068","FILE":"3490466","ELEMENT_SET_NO":"999","TLE_LINE2":"2 48017  53.0440 278.9910 0001866 346.4030  13.6942 15.84429663 69429","MEAN_MOTION_DOT":"0.00147577","PERIAPSIS":"316.684","REF_FRAME":"TEME","MEAN_ANOMALY":"13.6942","SITE":"AFETR","MEAN_MOTION_DDOT":"0.0000000000000","APOAPSIS":"319.183","CLASSIFICATION_TYPE":"U","GP_ID":"205863459","ARG_OF_PERICENTER":"346.4030","TIME_SYSTEM":"UTC","REV_AT_EPOCH":"6942","CENTER_NAME":"EARTH","EPOCH":"2022-06-10T17:24:20.196864","DECAY_DATE":null,"RCS_SIZE":"LARGE","MEAN_MOTION":"15.84429663","OBJECT_ID":"2021-024AS","RA_OF_ASC_NODE":"278.9910","NORAD_CAT_ID":"48017","LAUNCH_DATE":"2021-03-24","PERIOD":"90.884","BSTAR":"0.00062513000000","COUNTRY_CODE":"US","TLE_LINE1":"1 48017U 21024AS  22161.72523376  .00147577  00000-0  62513-3 0  9997","ECCENTRICITY":"0.00018660","OBJECT_NAME":"STARLINK-2239","OBJECT_TYPE":"PAYLOAD"},{"SITE":"AFETR","MEAN_ANOMALY":"291.2676","MEAN_MOTION_DDOT":"0.0000000000000","APOAPSIS":"553.442","ARG_OF_PERICENTER":"68.8505","CLASSIFICATION_TYPE":"U","GP_ID":"205832171","INCLINATION":"53.0545","MEAN_ELEMENT_THEORY":"SGP4","SEMIMAJOR_AXIS":"6930.326","EPHEMERIS_TYPE":"0","MEAN_MOTION_DOT":"0.00094361","TLE_LINE2":"2 48018  53.0545 342.3863 0001806  68.8505 291.2676 15.04777493 68072","REF_FRAME":"TEME","PERIAPSIS":"550.939","ELEMENT_SET_NO":"999","FILE":"3490094","PERIOD":"95.695","LAUNCH_DATE":"2021-03-24","BSTAR":"0.00654870000000","NORAD_CAT_ID":"48018","OBJECT_TYPE":"PAYLOAD","COUNTRY_CODE":"US","TLE_LINE1":"1 48018U 21024AT  22161.82690810  .00094361  00000-0  65487-2 0  9991","OBJECT_NAME":"STARLINK-2282","ECCENTRICITY":"0.00018060","RCS_SIZE":"LARGE","REV_AT_EPOCH":"6807","CENTER_NAME":"EARTH","TIME_SYSTEM":"UTC","EPOCH":"2022-06-10T19:50:44.859840","DECAY_DATE":null,"RA_OF_ASC_NODE":"342.3863","MEAN_MOTION":"15.04777493","OBJECT_ID":"2021-024AT"},{"FILE":"3490466","ELEMENT_SET_NO":"999","REF_FRAME":"TEME","PERIAPSIS":"546.092","TLE_LINE2":"2 48019  53.0546 333.0152 0001647  72.7220 287.3949 15.06393934 68652","MEAN_MOTION_DOT":"-0.00000052","EPHEMERIS_TYPE":"0","SEMIMAJOR_AXIS":"6925.367","MEAN_ELEMENT_THEORY":"SGP4","INCLINATION":"53.0546","GP_ID":"205862458","CLASSIFICATION_TYPE":"U","ARG_OF_PERICENTER":"72.7220","APOAPSIS":"548.373","MEAN_MOTION_DDOT":"0.0000000000000","MEAN_ANOMALY":"287.3949","SITE":"AFETR","OBJECT_ID":"2021-024AU","MEAN_MOTION":"15.06393934","RA_OF_ASC_NODE":"333.0152","EPOCH":"2022-06-10T15:27:35.640000","DECAY_DATE":null,"REV_AT_EPOCH":"6865","TIME_SYSTEM":"UTC","CENTER_NAME":"EARTH","RCS_SIZE":"LARGE","OBJECT_NAME":"STARLINK-2285","TLE_LINE1":"1 48019U 21024AU  22161.64416250 -.00000052  00000-0  15381-4 0  9991","ECCENTRICITY":"0.00016470","COUNTRY_CODE":"US","OBJECT_TYPE":"PAYLOAD","NORAD_CAT_ID":"48019","BSTAR":"0.00001538100000","LAUNCH_DATE":"2021-03-24","PERIOD":"95.593"},{"COUNTRY_CODE":"US","TLE_LINE1":"1 48020U 21024AV  22161.74845655  .00000595  00000-0  62346-4 0  9993","OBJECT_NAME":"STARLINK-2294","ECCENTRICITY":"0.00016320","OBJECT_TYPE":"PAYLOAD","NORAD_CAT_ID":"48020","PERIOD":"95.748","LAUNCH_DATE":"2021-03-24","BSTAR":"0.00006234600000","MEAN_MOTION":"15.03955480","OBJECT_ID":"2021-024AV","RA_OF_ASC_NODE":"287.8878","REV_AT_EPOCH":"6929","CENTER_NAME":"EARTH","TIME_SYSTEM":"UTC","EPOCH":"2022-06-10T17:57:46.645920","DECAY_DATE":null,"RCS_SIZE":"LARGE","CLASSIFICATION_TYPE":"U","GP_ID":"205863708","ARG_OF_PERICENTER":"67.3193","SITE":"AFETR","MEAN_ANOMALY":"292.7968","APOAPSIS":"555.847","MEAN_MOTION_DDOT":"0.0000000000000","ELEMENT_SET_NO":"999","FILE":"3490466","MEAN_MOTION_DOT":"0.00000595","TLE_LINE2":"2 48020  53.0565 287.8878 0001632  67.3193 292.7968 15.03955480 69298","REF_FRAME":"TEME","PERIAPSIS":"553.584","INCLINATION":"53.0565","MEAN_ELEMENT_THEORY":"SGP4","SEMIMAJOR_AXIS":"6932.851","EPHEMERIS_TYPE":"0"},{"MEAN_ELEMENT_THEORY":"SGP4","INCLINATION":"53.0562","EPHEMERIS_TYPE":"0","SEMIMAJOR_AXIS":"6925.370","TLE_LINE2":"2 48021  53.0562 293.0753 0001513  64.6562 295.4583 15.06392888 69221","MEAN_MOTION_DOT":"-0.00000189","PERIAPSIS":"546.188","REF_FRAME":"TEME","FILE":"3490466","ELEMENT_SET_NO":"999","SITE":"AFETR","MEAN_ANOMALY":"295.4583","MEAN_MOTION_DDOT":"0.0000000000000","APOAPSIS":"548.283","ARG_OF_PERICENTER":"64.6562","CLASSIFICATION_TYPE":"U","GP_ID":"205863959","RCS_SIZE":"LARGE","REV_AT_EPOCH":"6922","CENTER_NAME":"EARTH","TIME_SYSTEM":"UTC","EPOCH":"2022-06-10T15:11:39.837408","DECAY_DATE":null,"RA_OF_ASC_NODE":"293.0753","MEAN_MOTION":"15.06392888","OBJECT_ID":"2021-024AW","LAUNCH_DATE":"2021-03-24","PERIOD":"95.593","BSTAR":"0.00000621070000","NORAD_CAT_ID":"48021","OBJECT_TYPE":"PAYLOAD","COUNTRY_CODE":"US","TLE_LINE1":"1 48021U 21024AW  22161.63309997 -.00000189  00000-0  62107-5 0  9992","OBJECT_NAME":"STARLINK-2301","ECCENTRICITY":"0.00015130"},{"RA_OF_ASC_NODE":"352.6244","OBJECT_ID":"2021-024AX","MEAN_MOTION":"15.06390937","RCS_SIZE":"LARGE","EPOCH":"2022-06-10T19:02:36.391200","DECAY_DATE":null,"REV_AT_EPOCH":"6845","CENTER_NAME":"EARTH","TIME_SYSTEM":"UTC","OBJECT_TYPE":"PAYLOAD","TLE_LINE1":"1 48022U 21024AX  22161.79347675  .00001645  00000-0  12933-3 0  9992","OBJECT_NAME":"STARLINK-2298","ECCENTRICITY":"0.00014090","COUNTRY_CODE":"US","BSTAR":"0.00012933000000","LAUNCH_DATE":"2021-03-24","PERIOD":"95.593","NORAD_CAT_ID":"48022","REF_FRAME":"TEME","PERIAPSIS":"546.266","TLE_LINE2":"2 48022  53.0559 352.6244 0001409  75.7910 284.3236 15.06390937 68458","MEAN_MOTION_DOT":"0.00001645","FILE":"3490466","ELEMENT_SET_NO":"999","EPHEMERIS_TYPE":"0","SEMIMAJOR_AXIS":"6925.376","MEAN_ELEMENT_THEORY":"SGP4","INCLINATION":"53.0559","ARG_OF_PERICENTER":"75.7910","GP_ID":"205862708","CLASSIFICATION_TYPE":"U","MEAN_MOTION_DDOT":"0.0000000000000","APOAPSIS":"548.217","MEAN_ANOMALY":"284.3236","SITE":"AFETR"},{"ELEMENT_SET_NO":"999","FILE":"3490095","MEAN_MOTION_DOT":"0.00001064","TLE_LINE2":"2 48023  53.0566 352.1041 0001541  80.9304 279.1859 15.06399181 67934","PERIAPSIS":"546.149","REF_FRAME":"TEME","MEAN_ELEMENT_THEORY":"SGP4","INCLINATION":"53.0566","SEMIMAJOR_AXIS":"6925.351","EPHEMERIS_TYPE":"0","CLASSIFICATION_TYPE":"U","GP_ID":"205832684","ARG_OF_PERICENTER":"80.9304","SITE":"AFETR","MEAN_ANOMALY":"279.1859","APOAPSIS":"548.283","MEAN_MOTION_DDOT":"0.0000000000000","MEAN_MOTION":"15.06399181","OBJECT_ID":"2021-024AY","RA_OF_ASC_NODE":"352.1041","REV_AT_EPOCH":"6793","TIME_SYSTEM":"UTC","CENTER_NAME":"EARTH","EPOCH":"2022-06-10T20:22:09.715584","DECAY_DATE":null,"RCS_SIZE":"LARGE","COUNTRY_CODE":"US","ECCENTRICITY":"0.00015410","TLE_LINE1":"1 48023U 21024AY  22161.84872356  .00001064  00000-0  90332-4 0  9993","OBJECT_NAME":"STARLINK-2292","OBJECT_TYPE":"PAYLOAD","NORAD_CAT_ID":"48023","PERIOD":"95.592","LAUNCH_DATE":"2021-03-24","BSTAR":"0.00009033200000"},{"MEAN_ANOMALY":"276.9158","SITE":"AFETR","MEAN_MOTION_DDOT":"0.0000000000000","APOAPSIS":"548.205","ARG_OF_PERICENTER":"83.1994","CLASSIFICATION_TYPE":"U","GP_ID":"205863209","MEAN_ELEMENT_THEORY":"SGP4","INCLINATION":"53.0554","SEMIMAJOR_AXIS":"6925.349","EPHEMERIS_TYPE":"0","MEAN_MOTION_DOT":"0.00000065","TLE_LINE2":"2 48026  53.0554 357.1790 0001431  83.1994 276.9158 15.06399705 68332","PERIAPSIS":"546.223","REF_FRAME":"TEME","ELEMENT_SET_NO":"999","FILE":"3490466","PERIOD":"95.592","LAUNCH_DATE":"2021-03-24","BSTAR":"0.00002325000000","NORAD_CAT_ID":"48026","OBJECT_TYPE":"PAYLOAD","COUNTRY_CODE":"US","OBJECT_NAME":"STARLINK-2278","TLE_LINE1":"1 48026U 21024BB  22161.82799260  .00000065  00000-0  23250-4 0  9991","ECCENTRICITY":"0.00014310","RCS_SIZE":"LARGE","REV_AT_EPOCH":"6833","TIME_SYSTEM":"UTC","CENTER_NAME":"EARTH","EPOCH":"2022-06-10T19:52:18.560640","DECAY_DATE":null,"RA_OF_ASC_NODE":"357.1790","MEAN_MOTION":"15.06399705","OBJECT_ID":"2021-024BB"},{"INCLINATION":"53.0554","MEAN_ELEMENT_THEORY":"SGP4","EPHEMERIS_TYPE":"0","SEMIMAJOR_AXIS":"6925.362","FILE":"3490466","ELEMENT_SET_NO":"999","TLE_LINE2":"2 48027  53.0554 332.0714 0001516  88.1728 271.9434 15.06395730 68689","MEAN_MOTION_DOT":"0.00001102","PERIAPSIS":"546.177","REF_FRAME":"TEME","SITE":"AFETR","MEAN_ANOMALY":"271.9434","MEAN_MOTION_DDOT":"0.0000000000000","APOAPSIS":"548.277","CLASSIFICATION_TYPE":"U","GP_ID":"205863460","ARG_OF_PERICENTER":"88.1728","REV_AT_EPOCH":"6868","TIME_SYSTEM":"UTC","CENTER_NAME":"EARTH","EPOCH":"2022-06-10T20:30:07.874784","DECAY_DATE":null,"RCS_SIZE":"LARGE","MEAN_MOTION":"15.06395730","OBJECT_ID":"2021-024BC","RA_OF_ASC_NODE":"332.0714","NORAD_CAT_ID":"48027","LAUNCH_DATE":"2021-03-24","PERIOD":"95.592","BSTAR":"0.00009286000000","COUNTRY_CODE":"US","TLE_LINE1":"1 48027U 21024BC  22161.85425781  .00001102  00000-0  92860-4 0  9995","ECCENTRICITY":"0.00015160","OBJECT_NAME":"STARLINK-2300","OBJECT_TYPE":"PAYLOAD"},{"NORAD_CAT_ID":"48028","PERIOD":"95.748","LAUNCH_DATE":"2021-03-24","BSTAR":"-0.00005348200000","COUNTRY_CODE":"US","ECCENTRICITY":"0.00016640","TLE_LINE1":"1 48028U 21024BD  22161.76845164 -.00001021  00000-0 -53482-4 0  9996","OBJECT_NAME":"STARLINK-2264","OBJECT_TYPE":"PAYLOAD","REV_AT_EPOCH":"6935","TIME_SYSTEM":"UTC","CENTER_NAME":"EARTH","EPOCH":"2022-06-10T18:26:34.221696","DECAY_DATE":null,"RCS_SIZE":"LARGE","MEAN_MOTION":"15.03945269","OBJECT_ID":"2021-024BD","RA_OF_ASC_NODE":"287.8196","SITE":"AFETR","MEAN_ANOMALY":"296.2794","MEAN_MOTION_DDOT":"0.0000000000000","APOAPSIS":"555.901","CLASSIFICATION_TYPE":"U","GP_ID":"205862209","ARG_OF_PERICENTER":"63.8365","INCLINATION":"53.0561","MEAN_ELEMENT_THEORY":"SGP4","SEMIMAJOR_AXIS":"6932.882","EPHEMERIS_TYPE":"0","ELEMENT_SET_NO":"999","FILE":"3490466","MEAN_MOTION_DOT":"-0.00001021","TLE_LINE2":"2 48028  53.0561 287.8196 0001664  63.8365 296.2794 15.03945269 69359","PERIAPSIS":"553.594","REF_FRAME":"TEME"}];
